[{"OBJECT_NAME":"STARLINK-3617","OBJECT_ID":"2022-017N","EPOCH":"2026-03-09T23:22:44.837184","MEAN_MOTION":15.0883174,"ECCENTRICITY":0.00015283,"INCLINATION":53.2205,"RA_OF_ASC_NODE":337.8367,"ARG_OF_PERICENTER":100.659,"MEAN_ANOMALY":259.4575,"EPHEMERIS_TYPE":0,"CLASSIFICATION_TYPE":"U","NORAD_CAT_ID":51780,"ELEMENT_SET_NO":999,"REV_AT_EPOCH":22246,"BSTAR":3.9469586e-5,"MEAN_MOTION_DOT":3.4e-6,"MEAN_MOTION_DDOT":0},{"OBJECT_NAME":"SL-8 DEB","OBJECT_ID":"1976-098E","EPOCH":"2026-03-09T08:07:12.416160","MEAN_MOTION":15.06605169,"ECCENTRICITY":0.00102283,"INCLINATION":74.028,"RA_OF_ASC_NODE":26.283,"ARG_OF_PERICENTER":218.296,"MEAN_ANOMALY":294.2383,"EPHEMERIS_TYPE":0,"CLASSIFICATION_TYPE":"U","NORAD_CAT_ID":18504,"ELEMENT_SET_NO":999,"REV_AT_EPOCH":18055,"BSTAR":0.0011587434,"MEAN_MOTION_DOT":0.00017191,"MEAN_MOTION_DDOT":0}]
